
    {
        "ARG_OF_PERICENTER": 140.5687,
        "BSTAR": 0.00023212439,
        "CLASSIFICATION_TYPE": "U",
        "ECCENTRICITY": 0.00134068,
        "ELEMENT_SET_NO": 999,
        "EPHEMERIS_TYPE": 0,
        "EPOCH": "2026-06-19T14:15:42.695424",
        "INCLINATION": 97.4296,
        "MEAN_ANOMALY": 219.6526,
        "MEAN_MOTION": 15.19296523,
        "MEAN_MOTION_DDOT": 0,
        "MEAN_MOTION_DOT": 4.842e-05,
        "NORAD_CAT_ID": 44804,
        "OBJECT_ID": "2019-081A",
        "OBJECT_NAME": "CARTOSAT-3",
        "RA_OF_ASC_NODE": 232.4236,
        "REV_AT_EPOCH": 36383
    },
    {
        "ARG_OF_PERICENTER": 67.5839,
        "BSTAR": 4.4308954e-05,
        "CLASSIFICATION_TYPE": "U",
        "ECCENTRICITY": 0.00022073,
        "ELEMENT_SET_NO": 999,
        "EPHEMERIS_TYPE": 0,
        "EPOCH": "2026-06-19T13:55:52.441248",
        "INCLINATION": 97.8101,
        "MEAN_ANOMALY": 292.5607,
        "MEAN_MOTION": 14.80460227,
        "MEAN_MOTION_DDOT": 0,
        "MEAN_MOTION_DOT": 2.88e-06,
        "NORAD_CAT_ID": 44819,
        "OBJECT_ID": "2019-082A",
        "OBJECT_NAME": "GAOFEN-12 01",
        "RA_OF_ASC_NODE": 176.8968,
        "REV_AT_EPOCH": 35444
    },
    {
        "ARG_OF_PERICENTER": 90.0015,
        "BSTAR": 4.2355337e-05,
        "CLASSIFICATION_TYPE": "U",
        "ECCENTRICITY": 0.00014511,
        "ELEMENT_SET_NO": 999,
        "EPHEMERIS_TYPE": 0,
        "EPOCH": "2026-06-19T14:48:07.205184",
        "INCLINATION": 97.8888,
        "MEAN_ANOMALY": 270.1365,
        "MEAN_MOTION": 14.82154821,
        "MEAN_MOTION_DDOT": 0,
        "MEAN_MOTION_DOT": 2.85e-06,
        "NORAD_CAT_ID": 44873,
        "OBJECT_ID": "2019-092A",
        "OBJECT_NAME": "CSG-1",
        "RA_OF_ASC_NODE": 354.184,
        "REV_AT_EPOCH": 35183
    },
    {
        "ARG_OF_PERICENTER": 79.5981,
        "BSTAR": 0.00018551235,
        "CLASSIFICATION_TYPE": "U",
        "ECCENTRICITY": 0.00021702,
        "ELEMENT_SET_NO": 999,
        "EPHEMERIS_TYPE": 0,
        "EPOCH": "2026-06-19T14:11:48.999840",
        "INCLINATION": 97.1915,
        "MEAN_ANOMALY": 280.5512,
        "MEAN_MOTION": 15.44634764,
        "MEAN_MOTION_DDOT": 0,
        "MEAN_MOTION_DOT": 8.552e-05,
        "NORAD_CAT_ID": 46277,
        "OBJECT_ID": "2020-061F",
        "OBJECT_NAME": "NEMO-HD",
        "RA_OF_ASC_NODE": 232.5203,
        "REV_AT_EPOCH": 32235
    },
    {
        "ARG_OF_PERICENTER": 270.1963,
        "BSTAR": 4.1848121e-05,
        "CLASSIFICATION_TYPE": "U",
        "ECCENTRICITY": 0.00079244,
        "ELEMENT_SET_NO": 999,
        "EPHEMERIS_TYPE": 0,
        "EPOCH": "2026-06-19T14:00:50.122080",
        "INCLINATION": 66.0397,
        "MEAN_ANOMALY": 89.8144,
        "MEAN_MOTION": 12.80929975,
        "MEAN_MOTION_DDOT": 0,
        "MEAN_MOTION_DOT": -5.1e-07,
        "NORAD_CAT_ID": 46984,
        "OBJECT_ID": "2020-086A",
        "OBJECT_NAME": "SENTINEL-6A",
        "RA_OF_ASC_NODE": 130.0742,
        "REV_AT_EPOCH": 26063
    },
    {
        "ARG_OF_PERICENTER": 288.076,
        "BSTAR": 0.00022080837,
        "CLASSIFICATION_TYPE": "U",
        "ECCENTRICITY": 0.00033009,
        "ELEMENT_SET_NO": 999,
        "EPHEMERIS_TYPE": 0,
        "EPOCH": "2026-06-19T15:07:31.630944",
        "INCLINATION": 97.3894,
        "MEAN_ANOMALY": 72.0116,
        "MEAN_MOTION": 15.20155481,
        "MEAN_MOTION_DDOT": 0,
        "MEAN_MOTION_DOT": 4.71e-05,
        "NORAD_CAT_ID": 47932,
        "OBJECT_ID": "2021-022A",
        "OBJECT_NAME": "CAS500-1",
        "RA_OF_ASC_NODE": 65.8341,
        "REV_AT_EPOCH": 29113
    },
    {
        "ARG_OF_PERICENTER": 212.0285,
        "BSTAR": 4.0850544e-05,
        "CLASSIFICATION_TYPE": "U",
        "ECCENTRICITY": 0.00038497,
        "ELEMENT_SET_NO": 999,
        "EPHEMERIS_TYPE": 0,
        "EPOCH": "2026-06-19T14:12:10.054656",
        "INCLINATION": 97.9922,
        "MEAN_ANOMALY": 148.0694,
        "MEAN_MOTION": 14.80297622,
        "MEAN_MOTION_DDOT": 0,
        "MEAN_MOTION_DOT": 2.58e-06,
        "NORAD_CAT_ID": 48079,
        "OBJECT_ID": "2021-026A",
        "OBJECT_NAME": "GAOFEN-12 02",
        "RA_OF_ASC_NODE": 168.7626,
        "REV_AT_EPOCH": 28211
    },
    {
        "ARG_OF_PERICENTER": 89.7246,
        "BSTAR": 3.6054986e-05,
        "CLASSIFICATION_TYPE": "U",
        "ECCENTRICITY": 0.00013358,
        "ELEMENT_SET_NO": 999,
        "EPHEMERIS_TYPE": 0,
        "EPOCH": "2026-06-19T08:19:10.706880",
        "INCLINATION": 97.893,
        "MEAN_ANOMALY": 270.412,
        "MEAN_MOTION": 14.81675152,
        "MEAN_MOTION_DDOT": 0,
        "MEAN_MOTION_DOT": 2.32e-06,
        "NORAD_CAT_ID": 48268,
        "OBJECT_ID": "2021-034A",
        "OBJECT_NAME": "PLEIADES NEO 3",
        "RA_OF_ASC_NODE": 245.0823,
        "REV_AT_EPOCH": 27797
    },
    {
        "ARG_OF_PERICENTER": 88.3314,
        "BSTAR": 0.0001636946,
        "CLASSIFICATION_TYPE": "U",
        "ECCENTRICITY": 0.00013978,
        "ELEMENT_SET_NO": 999,
        "EPHEMERIS_TYPE": 0,
        "EPOCH": "2026-06-19T10:45:01.272960",
        "INCLINATION": 97.8934,
        "MEAN_ANOMALY": 271.8059,
        "MEAN_MOTION": 14.81682225,
        "MEAN_MOTION_DDOT": 0,
        "MEAN_MOTION_DOT": 1.237e-05,
        "NORAD_CAT_ID": 49070,
        "OBJECT_ID": "2021-073E",
        "OBJECT_NAME": "PLEIADES NEO 4",
        "RA_OF_ASC_NODE": 245.1785,
        "REV_AT_EPOCH": 26170
    },
    {
        "ARG_OF_PERICENTER": 85.0425,
        "BSTAR": 6.5419856e-05,
        "CLASSIFICATION_TYPE": "U",
        "ECCENTRICITY": 0.00013346,
        "ELEMENT_SET_NO": 999,
        "EPHEMERIS_TYPE": 0,
        "EPOCH": "2026-06-19T11:06:11.906784",
        "INCLINATION": 98.228,
        "MEAN_ANOMALY": 275.0926,
        "MEAN_MOTION": 14.57098444,
        "MEAN_MOTION_DDOT": 0,
        "MEAN_MOTION_DOT": 2.49e-06,
        "NORAD_CAT_ID": 49260,
        "OBJECT_ID": "2021-088A",
        "OBJECT_NAME": "LANDSAT 9",
        "RA_OF_ASC_NODE": 240.6125,
        "REV_AT_EPOCH": 25133
    },
    {
        "ARG_OF_PERICENTER": 87.775,
        "BSTAR": -1.8549869e-05,
        "CLASSIFICATION_TYPE": "U",
        "ECCENTRICITY": 0.000144,
        "ELEMENT_SET_NO": 999,
        "EPHEMERIS_TYPE": 0,
        "EPOCH": "2026-06-19T15:36:41.734656",
        "INCLINATION": 97.8884,
        "MEAN_ANOMALY": 272.3628,
        "MEAN_MOTION": 14.82155587,
        "MEAN_MOTION_DDOT": 0,
        "MEAN_MOTION_DOT": -2e-06,
        "NORAD_CAT_ID": 51444,
        "OBJECT_ID": "2022-008A",
        "OBJECT_NAME": "CSG-2",
        "RA_OF_ASC_NODE": 354.2117,
        "REV_AT_EPOCH": 23695
    },
    {
        "ARG_OF_PERICENTER": 101.9086,
        "BSTAR": 1.2874342e-05,
        "CLASSIFICATION_TYPE": "U",
        "ECCENTRICITY": 0.0002142,
        "ELEMENT_SET_NO": 999,
        "EPHEMERIS_TYPE": 0,
        "EPOCH": "2026-06-19T14:55:51.815136",
        "INCLINATION": 97.8274,
        "MEAN_ANOMALY": 258.2366,
        "MEAN_MOTION": 14.80035817,
        "MEAN_MOTION_DDOT": 0,
        "MEAN_MOTION_DOT": 4.7e-07,
        "NORAD_CAT_ID": 52912,
        "OBJECT_ID": "2022-069A",
        "OBJECT_NAME": "GAOFEN-12 03",
        "RA_OF_ASC_NODE": 58.4307,
        "REV_AT_EPOCH": 21497
    },
    {
        "ARG_OF_PERICENTER": 91.2103,
        "BSTAR": 3.5989229e-05,
        "CLASSIFICATION_TYPE": "U",
        "ECCENTRICITY": 2.748e-05,
        "ELEMENT_SET_NO": 999,
        "EPHEMERIS_TYPE": 0,
        "EPOCH": "2026-06-19T13:27:16.540704",
        "INCLINATION": 77.6105,
        "MEAN_ANOMALY": 268.908,
        "MEAN_MOTION": 14.00169892,
        "MEAN_MOTION_DDOT": 0,
        "MEAN_MOTION_DOT": 5.1e-07,
        "NORAD_CAT_ID": 54754,
        "OBJECT_ID": "2022-173A",
        "OBJECT_NAME": "SWOT",
        "RA_OF_ASC_NODE": 32.1062,
        "REV_AT_EPOCH": 17948
    }